[{"OBJECT_NAME":"STARLINK-5222","OBJECT_ID":"2022-136T","EPOCH":"2026-03-09T22:26:24.439776","MEAN_MOTION":15.08838992,"ECCENTRICITY":0.00013964,"INCLINATION":53.2192,"RA_OF_ASC_NODE":342.8335,"ARG_OF_PERICENTER":93.3296,"MEAN_ANOMALY":266.7856,"EPHEMERIS_TYPE":0,"CLASSIFICATION_TYPE":"U","NORAD_CAT_ID":54068,"ELEMENT_SET_NO":999,"REV_AT_EPOCH":18688,"BSTAR":6.9685583e-5,"MEAN_MOTION_DOT":8.21e-6,"MEAN_MOTION_DDOT":0},{"OBJECT_NAME":"GB 1","OBJECT_ID":"1983-056C","EPOCH":"2026-03-09T15:35:32.481600","MEAN_MOTION":13.78372102,"ECCENTRICITY":0.07333204,"INCLINATION":63.3105,"RA_OF_ASC_NODE":168.7083,"ARG_OF_PERICENTER":129.9554,"MEAN_ANOMALY":236.8304,"EPHEMERIS_TYPE":0,"CLASSIFICATION_TYPE":"U","NORAD_CAT_ID":14143,"ELEMENT_SET_NO":999,"REV_AT_EPOCH":33291,"BSTAR":0.00056594387,"MEAN_MOTION_DOT":4.698e-5,"MEAN_MOTION_DDOT":0}]
